STARLINK-11660 [DTC]    
1 63761U 25089L   26167.98011000  .00161049  00000+0  12299-2 0  9993
2 63761  43.0023  53.5437 0000985 241.3484 118.7285 15.70927471 65705
STARLINK-11699 [DTC]    
1 63762U 25089M   26167.38675553  .00158601  00000+0  12130-2 0  9991
2 63762  43.0000  57.7195 0002138 269.8522  90.2101 15.70899117 65658
STARLINK-11693 [DTC]    
1 63763U 25089N   26167.98632964  .00244321  00000+0  18462-2 0  9996
2 63763  42.9961  53.5899 0000795 199.3102 160.7736 15.70916452 65644
STARLINK-33760          
1 63764U 25089P   26167.79903882  .00016313  00000+0  60066-3 0  9992
2 63764  42.9965 205.6376 0002051 282.3476  77.7146 15.27597423 64111
STARLINK-33941          
1 63765U 25089Q   26167.80160926  .00014831  00000+0  54716-3 0  9997
2 63765  42.9962 205.6568 0001911 277.9657  82.0977 15.27593760 64107
STARLINK-33824          
1 63766U 25089R   26167.81831492  .00011237  00000+0  41710-3 0  9999
2 63766  43.0025 205.7876 0001728 274.0313  86.0341 15.27592403 64119
STARLINK-33808          
1 63767U 25089S   26167.79004389  .00018073  00000+0  66425-3 0  9999
2 63767  42.9985 205.5686 0002150 271.7830  88.2775 15.27599675 64111
STARLINK-33844          
1 63768U 25089T   26167.83617306  .00011676  00000+0  43284-3 0  9994
2 63768  43.0010 205.0595 0001986 284.0837  75.9794 15.27601571 64121
STARLINK-33907          
1 63769U 25089U   26167.79518314  .00016922  00000+0  62268-3 0  9991
2 63769  42.9959 205.6068 0002042 281.3842  78.6780 15.27597816 64067
STARLINK-33884          
1 63770U 25089V   26167.37974176  .00011743  00000+0  43542-3 0  9999
2 63770  43.0014 207.6522 0004735 276.9875  83.0438 15.27584707 64006
STARLINK-33841          
1 63771U 25089W   26167.38746090  .00015083  00000+0  55671-3 0  9990
2 63771  42.9986 207.7072 0001257 256.8206 103.2506 15.27566413 64000
STARLINK-33769          
1 63773U 25089X   26167.37717274  .00016658  00000+0  61319-3 0  9998
2 63773  42.9927 207.6265 0000945 203.8444 156.2364 15.27595701 64045
STARLINK-33914          
1 63774U 25089Y   26166.84171146  .00013173  00000+0  48733-3 0  9996
2 63774  43.0004 206.9954 0000877 285.4799  74.5956 15.27582090 64017
STARLINK-33932          
1 63775U 25091A   26167.81347759  .00013415  00000+0  49624-3 0  9992
2 63775  42.9970 212.5778 0001838 274.7687  85.2955 15.27571988 64102
STARLINK-33930          
1 63776U 25091B   26167.84817492  .00012945  00000+0  47923-3 0  9999
2 63776  43.0010 212.8476 0000737 269.5283  90.5484 15.27570773 64061
STARLINK-33911          
1 63777U 25091C   26167.81056728  .00018961  00000+0  69567-3 0  9996
2 63777  42.9981 205.5927 0005658 262.8245  97.1964 15.27620923 64146
STARLINK-33938          
1 63778U 25091D   26167.83019095  .00009898  00000+0  36864-3 0  9998
2 63778  42.9982 212.7057 0001267 262.3854  97.6854 15.27588672 64153
STARLINK-33881          
1 63779U 25091E   26167.85459409  .00016261  00000+0  59875-3 0  9997
2 63779  42.9998 212.8961 0002463 271.8667  88.1903 15.27599715 64062
STARLINK-33846          
1 63780U 25091F   26168.23664872  .00010784  00000+0  40071-3 0  9996
2 63780  43.0005 210.6024 0001809 302.9407  57.1271 15.27590803 64177
STARLINK-33883          
1 63781U 25091G   26166.85966554  .00010023  00000+0  37320-3 0  9994
2 63781  43.0040 218.3235 0001820 263.1298  96.9347 15.27584932 63917
STARLINK-33842          
1 63782U 25091H   26167.82632485  .00016026  00000+0  59038-3 0  9995
2 63782  42.9958 212.6767 0002024 271.4490  88.6130 15.27593404 64153
STARLINK-33892          
1 63783U 25091J   26167.82504873  .00012010  00000+0  44496-3 0  9996
2 63783  43.0067 212.6651 0000374 294.1235  65.9578 15.27600238 64062
STARLINK-33933          
1 63784U 25091K   26167.82601153  .00012594  00000+0  46630-3 0  9995
2 63784  43.0009 205.7218 0000889 280.5561  79.5190 15.27586007 64252
STARLINK-33923          
1 63786U 25091M   26167.83146506  .00011010  00000+0  40890-3 0  9998
2 63786  42.9947 212.7143 0001750 268.3979  91.6672 15.27590630 64014
STARLINK-33947          
1 63787U 25091N   26167.85332106  .00012745  00000+0  47171-3 0  9999
2 63787  43.0020 212.8865 0000719 337.8825  22.1996 15.27591093 64064
STARLINK-33882          
1 63788U 25091P   26167.82375977  .00014394  00000+0  53133-3 0  9997
2 63788  43.0033 212.6519 0000373 301.0612  59.0204 15.27594943 64053
STARLINK-33875          
1 63789U 25091Q   26167.41987337  .00009219  00000+0  34397-3 0  9993
2 63789  43.0015 214.7803 0000562 267.3904  92.6884 15.27594234 64006
STARLINK-33869          
1 63790U 25091R   26167.41344995  .00016227  00000+0  59742-3 0  9990
2 63790  43.0060 214.7333 0000434 121.5098 238.5797 15.27606014 63956
STARLINK-33935          
1 63791U 25091S   26168.00002315  .00027547  00000+0  10071-2 0  9992
2 63791  43.0015 212.0047 0001353 276.2264 192.8001 15.27572521  5887
STARLINK-33916          
1 63792U 25091T   26167.84561588  .00014614  00000+0  53960-3 0  9992
2 63792  43.0055 212.8226 0001578 273.1260  86.9411 15.27575042 64064
