OBJECT_NAME,OBJECT_ID,EPOCH,MEAN_MOTION,ECCENTRICITY,INCLINATION,RA_OF_ASC_NODE,ARG_OF_PERICENTER,MEAN_ANOMALY,EPHEMERIS_TYPE,CLASSIFICATION_TYPE,NORAD_CAT_ID,ELEMENT_SET_NO,REV_AT_EPOCH,BSTAR,MEAN_MOTION_DOT,MEAN_MOTION_DDOT
STARLINK-11660 [DTC],2025-089L,2026-06-16T23:31:21.504000,15.70927471,.0000985,43.0023,53.5437,241.3484,118.7285,0,U,63761,999,6570,.12299E-2,.161049E-2,0
STARLINK-11699 [DTC],2025-089M,2026-06-16T09:16:55.677792,15.70899117,.00021381,43.0000,57.7195,269.8522,90.2101,0,U,63762,999,6565,.12130142E-2,.158601E-2,0
STARLINK-11693 [DTC],2025-089N,2026-06-16T23:40:18.880896,15.70916452,.0000795,42.9961,53.5899,199.3102,160.7736,0,U,63763,999,6564,.18462E-2,.244321E-2,0
STARLINK-33760,2025-089P,2026-06-16T19:10:36.954048,15.27597423,.0002051,42.9965,205.6376,282.3476,77.7146,0,U,63764,999,6411,.60066E-3,.16313E-3,0
STARLINK-33941,2025-089Q,2026-06-16T19:14:19.040064,15.27593760,.0001911,42.9962,205.6568,277.9657,82.0977,0,U,63765,999,6410,.54716E-3,.14831E-3,0
STARLINK-33824,2025-089R,2026-06-16T19:38:22.409088,15.27592403,.0001728,43.0025,205.7876,274.0313,86.0341,0,U,63766,999,6411,.4171E-3,.11237E-3,0
STARLINK-33808,2025-089S,2026-06-16T18:57:39.792096,15.27599675,.000215,42.9985,205.5686,271.7830,88.2775,0,U,63767,999,6411,.66425E-3,.18073E-3,0
STARLINK-33844,2025-089T,2026-06-16T20:04:05.352384,15.27601571,.0001986,43.0010,205.0595,284.0837,75.9794,0,U,63768,999,6412,.43284E-3,.11676E-3,0
STARLINK-33907,2025-089U,2026-06-16T19:05:03.823296,15.27597816,.0002042,42.9959,205.6068,281.3842,78.6780,0,U,63769,999,6406,.62268E-3,.16922E-3,0
STARLINK-33884,2025-089V,2026-06-16T09:06:49.688064,15.27584707,.00047355,43.0014,207.6522,276.9875,83.0438,0,U,63770,999,6400,.43541725E-3,.11743E-3,0
STARLINK-33841,2025-089W,2026-06-16T09:17:56.621760,15.27566413,.00012573,42.9986,207.7072,256.8206,103.2506,0,U,63771,999,6400,.55671316E-3,.15083E-3,0
STARLINK-33769,2025-089X,2026-06-16T09:03:07.724736,15.27595701,.00009457,42.9927,207.6265,203.8444,156.2364,0,U,63773,999,6404,.61319009E-3,.16658E-3,0
STARLINK-33914,2025-089Y,2026-06-15T20:12:03.870144,15.27582090,.00008773,43.0004,206.9954,285.4799,74.5956,0,U,63774,999,6401,.48732972E-3,.13173E-3,0
STARLINK-33932,2025-091A,2026-06-16T19:31:24.463776,15.27571988,.0001838,42.9970,212.5778,274.7687,85.2955,0,U,63775,999,6410,.49624E-3,.13415E-3,0
STARLINK-33930,2025-091B,2026-06-16T20:21:22.313088,15.27570773,.0000737,43.0010,212.8476,269.5283,90.5484,0,U,63776,999,6406,.47923E-3,.12945E-3,0
STARLINK-33911,2025-091C,2026-06-16T19:27:13.012992,15.27620923,.0005658,42.9981,205.5927,262.8245,97.1964,0,U,63777,999,6414,.69567E-3,.18961E-3,0
STARLINK-33938,2025-091D,2026-06-16T19:55:28.498080,15.27588672,.0001267,42.9982,212.7057,262.3854,97.6854,0,U,63778,999,6415,.36864E-3,.9898E-4,0
STARLINK-33881,2025-091E,2026-06-16T20:30:36.929376,15.27599715,.0002463,42.9998,212.8961,271.8667,88.1903,0,U,63779,999,6406,.59875E-3,.16261E-3,0
STARLINK-33846,2025-091F,2026-06-17T05:40:46.449408,15.27590803,.0001809,43.0005,210.6024,302.9407,57.1271,0,U,63780,999,6417,.40071E-3,.10784E-3,0
STARLINK-33883,2025-091G,2026-06-15T20:37:55.102656,15.27584932,.00018203,43.0040,218.3235,263.1298,96.9347,0,U,63781,999,6391,.37319722E-3,.10023E-3,0
STARLINK-33842,2025-091H,2026-06-16T19:49:54.467040,15.27593404,.0002024,42.9958,212.6767,271.4490,88.6130,0,U,63782,999,6415,.59038E-3,.16026E-3,0
STARLINK-33892,2025-091J,2026-06-16T19:48:04.210272,15.27600238,.0000374,43.0067,212.6651,294.1235,65.9578,0,U,63783,999,6406,.44496E-3,.1201E-3,0
STARLINK-33933,2025-091K,2026-06-16T19:49:27.396192,15.27586007,.0000889,43.0009,205.7218,280.5561,79.5190,0,U,63784,999,6425,.4663E-3,.12594E-3,0
STARLINK-33923,2025-091M,2026-06-16T19:57:18.581184,15.27590630,.000175,42.9947,212.7143,268.3979,91.6672,0,U,63786,999,6401,.4089E-3,.1101E-3,0
STARLINK-33947,2025-091N,2026-06-16T20:28:46.939584,15.27591093,.0000719,43.0020,212.8865,337.8825,22.1996,0,U,63787,999,6406,.47171E-3,.12745E-3,0
STARLINK-33882,2025-091P,2026-06-16T19:46:12.844128,15.27594943,.0000373,43.0033,212.6519,301.0612,59.0204,0,U,63788,999,6405,.53133E-3,.14394E-3,0
STARLINK-33875,2025-091Q,2026-06-16T10:04:37.059168,15.27594234,.00005625,43.0015,214.7803,267.3904,92.6884,0,U,63789,999,6400,.34396857E-3,.9219E-4,0
STARLINK-33869,2025-091R,2026-06-16T09:55:22.075680,15.27606014,.0000434,43.0060,214.7333,121.5098,238.5797,0,U,63790,999,6395,.59742304E-3,.16227E-3,0
STARLINK-33935,2025-091S,2026-06-17T00:00:02.000160,15.27572521,.0001353,43.0015,212.0047,276.2264,192.8001,0,U,63791,999,588,.10071E-2,.27547E-3,0
STARLINK-33916,2025-091T,2026-06-16T20:17:41.212032,15.27575042,.0001578,43.0055,212.8226,273.1260,86.9411,0,U,63792,999,6406,.5396E-3,.14614E-3,0
